GLOBALSTAR M069         
1 31573U 07020C   26200.86086764 -.00000051  00000+0  38310-3 0  9997
2 31573  52.0013 159.6455 0001528 220.1733 162.0416 12.23472443882809
GLOBALSTAR M072         
1 31574U 07020D   26200.86838078 -.00000090  00000+0 -77973-4 0  9994
2 31574  51.9951  13.2391 0001650  44.2299 104.8915 11.91658750878872
GLOBALSTAR M066         
1 32265U 07048C   26200.75662171 -.00000039  00000+0  46950-3 0  9991
2 32265  51.9612 324.4163 0005540 110.8827  54.0199 12.30390020864239
GLOBALSTAR M079         
1 37188U 10054A   26200.85821417 -.00000107  00000+0 -19500-4 0  9991
2 37188  52.0056   9.2143 0001125  85.4441  61.7850 12.62266406726671
GLOBALSTAR M074         
1 37189U 10054B   26200.88838346 -.00000106  00000+0 -11119-4 0  9991
2 37189  52.0035   8.3830 0000855  99.8307  64.4636 12.62262061727284
GLOBALSTAR M076         
1 37190U 10054C   26200.49019249 -.00000093  00000+0  58017-4 0  9995
2 37190  52.0050   9.8014 0001095  98.1215 295.7676 12.62262543726951
GLOBALSTAR M077         
1 37191U 10054D   26200.73391206 -.00000099  00000+0 -37983-3 0  9994
2 37191  51.9961  96.6871 0002186 233.4561 159.4197 11.67547211724949
GLOBALSTAR M075         
1 37192U 10054E   26200.89479274 -.00000103  00000+0  71100-5 0  9990
2 37192  51.9955  50.6053 0000785  71.6909 302.2721 12.62267911726075
GLOBALSTAR M073         
1 37193U 10054F   26200.51319668 -.00000098  00000+0  31452-4 0  9998
2 37193  52.0081 325.8934 0001019 102.4258 334.9601 12.62266923728011
GLOBALSTAR M083         
1 37739U 11033A   26200.62067876 -.00000086  00000+0  10078-3 0  9992
2 37739  51.9857 273.7518 0000700 110.5931  36.6997 12.62264353697046
GLOBALSTAR M088         
1 37740U 11033B   26200.88102572 -.00000101  00000+0  13156-4 0  9994
2 37740  52.0190 179.4632 0000134  41.6119 328.0695 12.62269478692627
GLOBALSTAR M091         
1 37741U 11033C   26200.81668669 -.00000088  00000+0  90152-4 0  9997
2 37741  51.9987 142.5762 0000532  32.6194 345.0890 12.62264280693409
GLOBALSTAR M085         
1 37742U 11033D   26200.72776477 -.00000088  00000+0  89467-4 0  9992
2 37742  52.0128  94.1680 0000864  48.8080 344.6332 12.62264446693906
GLOBALSTAR M081         
1 37743U 11033E   26200.75428078 -.00000091  00000+0  70397-4 0  9993
2 37743  51.9959  96.4861 0000752  61.0095 332.8593 12.62265355694057
GLOBALSTAR M089         
1 37744U 11033F   26200.86830368 -.00000104  00000+0 -53741-6 0  9997
2 37744  51.9941  50.2913 0000722  94.9371 278.4650 12.62267634694910
GLOBALSTAR M084         
1 38040U 11080A   26200.48559624 -.00000086  00000+0  10119-3 0  9997
2 38040  52.0012 278.9570 0000737 137.6772 235.5413 12.62263669672848
